OBJECT_NAME,OBJECT_ID,EPOCH,MEAN_MOTION,ECCENTRICITY,INCLINATION,RA_OF_ASC_NODE,ARG_OF_PERICENTER,MEAN_ANOMALY,EPHEMERIS_TYPE,CLASSIFICATION_TYPE,NORAD_CAT_ID,ELEMENT_SET_NO,REV_AT_EPOCH,BSTAR,MEAN_MOTION_DOT,MEAN_MOTION_DDOT
ONEWEB-0527,2022-166A,2026-06-08T12:00:02.000160,13.20232794,.0002021,87.9257,245.7368,99.6364,41.7449,0,U,54642,999,523,-.17156E-2,-.679E-5,0
ONEWEB-0528,2022-166B,2026-06-08T05:52:42.492000,13.21669035,.0001794,87.9255,245.7784,101.8238,258.3097,0,U,54643,999,17036,.13759E-3,.7E-6,0
ONEWEB-0539,2022-166C,2026-06-08T12:14:45.464352,13.21826314,.0002074,87.9264,245.6971,93.4513,266.6858,0,U,54644,999,17039,.32149E-3,.146E-5,0
ONEWEB-0540,2022-166D,2026-06-08T12:24:38.423232,13.21826318,.0002083,87.9258,245.7266,96.4212,263.7159,0,U,54645,999,17038,-.68687E-5,.1E-6,0
ONEWEB-0542,2022-166E,2026-06-08T12:29:16.994112,13.21827566,.0002103,87.9265,245.6935,91.4444,268.6931,0,U,54646,999,17039,.91012E-4,.51E-6,0
ONEWEB-0545,2022-166F,2026-06-08T11:38:24.679968,13.21828255,.0002304,87.9254,245.7131,87.6572,272.4825,0,U,54647,999,17035,.22673E-3,.107E-5,0
ONEWEB-0580,2022-166G,2026-06-08T12:51:04.564800,13.21827292,.0002358,87.9258,245.7028,92.6588,267.4816,0,U,54648,999,17040,-.842E-4,-.22E-6,0
ONEWEB-0582,2022-166H,2026-06-08T12:02:38.766048,13.21826283,.000229,87.9255,245.7022,89.9996,270.1400,0,U,54649,999,17037,.23618E-3,.111E-5,0
ONEWEB-0583,2022-166J,2026-06-08T12:19:35.668992,13.21827460,.0002051,87.9255,245.7233,96.9417,263.1950,0,U,54650,999,17038,.1706E-3,.83E-6,0
ONEWEB-0584,2022-166K,2026-06-08T12:48:38.803680,13.21825216,.0002139,87.9255,245.7047,97.8394,262.2982,0,U,54651,999,17037,.89561E-4,.5E-6,0
ONEWEB-0585,2022-166L,2026-06-08T11:33:34.775136,13.21827087,.0001959,87.9257,245.7017,103.7812,256.3540,0,U,54652,999,17037,-.87558E-4,-.23E-6,0
ONEWEB-0586,2022-166M,2026-06-08T11:52:55.092576,13.21824226,.0002077,87.9256,245.7249,94.5530,265.5841,0,U,54653,999,17037,.27619E-3,.127E-5,0
ONEWEB-0587,2022-166N,2026-06-08T12:07:27.017184,13.21828441,.0001862,87.9266,245.6956,109.3589,250.7747,0,U,54654,999,17053,.16878E-3,.83E-6,0
ONEWEB-0589,2022-166P,2026-06-08T11:48:04.584672,13.21824253,.0002655,87.9252,245.7115,84.7009,275.4427,0,U,54655,999,17039,.29484E-3,.135E-5,0
ONEWEB-0590,2022-166Q,2026-06-08T12:24:14.766048,13.21825889,.0002472,87.9264,245.6959,105.0533,255.0875,0,U,54656,999,17038,.19441E-3,.93E-6,0
ONEWEB-0591,2022-166R,2026-06-08T12:41:24.430272,13.21825941,.0002113,87.9253,245.7089,100.0529,260.0843,0,U,54657,999,17041,-.90483E-4,-.24E-6,0
ONEWEB-0592,2022-166S,2026-06-08T12:46:14.443968,13.21827592,.0002029,87.9265,245.6855,99.1876,260.9488,0,U,54658,999,17029,-.57954E-4,-.11E-6,0
ONEWEB-0593,2022-166T,2026-06-08T11:28:42.324960,13.21828214,.0002007,87.9256,245.7084,95.0373,265.0990,0,U,54659,999,17039,-.87592E-4,-.23E-6,0
ONEWEB-0594,2022-166U,2026-06-08T04:41:45.176928,13.21824218,.0002003,87.9256,245.7814,101.3137,258.8222,0,U,54660,999,17037,.17644E-3,.86E-6,0
ONEWEB-0595,2022-166V,2026-06-08T05:56:52.105920,13.21827193,.000201,87.9265,245.7507,106.0731,254.0625,0,U,54661,999,17035,.74564E-4,.44E-6,0
ONEWEB-0596,2022-166W,2026-06-08T12:36:33.401376,13.21826722,.0002025,87.9256,245.7076,102.1260,258.0100,0,U,54662,999,17039,.40802E-4,.3E-6,0
ONEWEB-0597,2022-166X,2026-06-08T12:09:54.628128,13.21826369,.0002053,87.9253,245.7147,96.1101,264.0267,0,U,54663,999,17039,.27974E-3,.129E-5,0
ONEWEB-0600,2022-166Y,2026-06-08T11:43:13.759680,13.21826846,.0001876,87.9255,245.7097,95.5181,264.6167,0,U,54664,999,17036,-.15003E-3,-.49E-6,0
ONEWEB-0601,2022-166Z,2026-06-08T11:31:08.209632,13.21825621,.0002178,87.9253,245.7272,93.7990,266.3393,0,U,54665,999,17055,.74549E-4,.44E-6,0
ONEWEB-0602,2022-166AA,2026-06-08T12:30:29.318688,13.21825926,.0001842,87.9255,245.7253,93.1390,266.9954,0,U,54666,999,17040,.6123E-4,.38E-6,0
ONEWEB-0603,2022-166AB,2026-06-08T12:38:58.883424,13.21826217,.000203,87.9265,245.6802,96.2579,263.8786,0,U,54667,999,17033,-.4295E-4,-.5E-7,0
ONEWEB-0604,2022-166AC,2026-06-08T12:22:00.872832,13.21827829,.0001981,87.9266,245.6982,101.3972,258.7385,0,U,54668,999,17029,.44737E-4,.31E-6,0
ONEWEB-0605,2022-166AD,2026-06-08T12:12:20.371968,13.21826082,.0002635,87.9257,245.7137,94.9754,265.1680,0,U,54669,999,17036,.37419E-3,.168E-5,0
ONEWEB-0606,2022-166AE,2026-06-08T12:43:49.414656,13.21826216,.0001946,87.9257,245.7218,104.2963,255.8388,0,U,54670,999,17042,.37841E-5,.15E-6,0
ONEWEB-0607,2022-166AF,2026-06-08T11:55:20.481312,13.21824552,.0002026,87.9262,245.6989,95.0191,265.1175,0,U,54671,999,17039,.55023E-4,.36E-6,0
ONEWEB-0608,2022-166AG,2026-06-08T04:49:02.701344,13.21827768,.0002433,87.9269,245.7543,90.3605,269.7808,0,U,54672,999,17036,.23182E-3,.109E-5,0
