ONEWEB-0527             
1 54642U 22166A   26159.50002315 -.00000679  00000+0 -17156-2 0  9992
2 54642  87.9257 245.7368 0002021  99.6364  41.7449 13.20232794  5230
ONEWEB-0528             
1 54643U 22166B   26159.24493625  .00000070  00000+0  13759-3 0  9991
2 54643  87.9255 245.7784 0001794 101.8238 258.3097 13.21669035170368
ONEWEB-0539             
1 54644U 22166C   26159.51024843  .00000146  00000+0  32149-3 0  9992
2 54644  87.9264 245.6971 0002074  93.4513 266.6858 13.21826314170395
ONEWEB-0540             
1 54645U 22166D   26159.51711138  .00000010  00000+0 -68687-5 0  9992
2 54645  87.9258 245.7266 0002083  96.4212 263.7159 13.21826318170381
ONEWEB-0542             
1 54646U 22166E   26159.52033558  .00000051  00000+0  91012-4 0  9998
2 54646  87.9265 245.6935 0002103  91.4444 268.6931 13.21827566170396
ONEWEB-0545             
1 54647U 22166F   26159.48500787  .00000107  00000+0  22673-3 0  9995
2 54647  87.9254 245.7131 0002304  87.6572 272.4825 13.21828255170353
ONEWEB-0580             
1 54648U 22166G   26159.53546950 -.00000022  00000+0 -84200-4 0  9997
2 54648  87.9258 245.7028 0002358  92.6588 267.4816 13.21827292170405
ONEWEB-0582             
1 54649U 22166H   26159.50183757  .00000111  00000+0  23618-3 0  9999
2 54649  87.9255 245.7022 0002290  89.9996 270.1400 13.21826283170379
ONEWEB-0583             
1 54650U 22166J   26159.51360728  .00000083  00000+0  17060-3 0  9999
2 54650  87.9255 245.7233 0002051  96.9417 263.1950 13.21827460170387
ONEWEB-0584             
1 54651U 22166K   26159.53378245  .00000050  00000+0  89561-4 0  9995
2 54651  87.9255 245.7047 0002139  97.8394 262.2982 13.21825216170373
ONEWEB-0585             
1 54652U 22166L   26159.48165249 -.00000023  00000+0 -87558-4 0  9994
2 54652  87.9257 245.7017 0001959 103.7812 256.3540 13.21827087170376
ONEWEB-0586             
1 54653U 22166M   26159.49508209  .00000127  00000+0  27619-3 0  9997
2 54653  87.9256 245.7249 0002077  94.5530 265.5841 13.21824226170377
ONEWEB-0587             
1 54654U 22166N   26159.50517381  .00000083  00000+0  16878-3 0  9997
2 54654  87.9266 245.6956 0001862 109.3589 250.7747 13.21828441170535
ONEWEB-0589             
1 54655U 22166P   26159.49171973  .00000135  00000+0  29484-3 0  9994
2 54655  87.9252 245.7115 0002655  84.7009 275.4427 13.21824253170393
ONEWEB-0590             
1 54656U 22166Q   26159.51683757  .00000093  00000+0  19441-3 0  9991
2 54656  87.9264 245.6959 0002472 105.0533 255.0875 13.21825889170384
ONEWEB-0591             
1 54657U 22166R   26159.52875498 -.00000024  00000+0 -90483-4 0  9990
2 54657  87.9253 245.7089 0002113 100.0529 260.0843 13.21825941170414
ONEWEB-0592             
1 54658U 22166S   26159.53211162 -.00000011  00000+0 -57954-4 0  9996
2 54658  87.9265 245.6855 0002029  99.1876 260.9488 13.21827592170291
ONEWEB-0593             
1 54659U 22166T   26159.47826765 -.00000023  00000+0 -87592-4 0  9995
2 54659  87.9256 245.7084 0002007  95.0373 265.0990 13.21828214170397
ONEWEB-0594             
1 54660U 22166U   26159.19566177  .00000086  00000+0  17644-3 0  9991
2 54660  87.9256 245.7814 0002003 101.3137 258.8222 13.21824218170371
ONEWEB-0595             
1 54661U 22166V   26159.24782530  .00000044  00000+0  74564-4 0  9990
2 54661  87.9265 245.7507 0002010 106.0731 254.0625 13.21827193170359
ONEWEB-0596             
1 54662U 22166W   26159.52538659  .00000030  00000+0  40802-4 0  9996
2 54662  87.9256 245.7076 0002025 102.1260 258.0100 13.21826722170394
ONEWEB-0597             
1 54663U 22166X   26159.50688227  .00000129  00000+0  27974-3 0  9995
2 54663  87.9253 245.7147 0002053  96.1101 264.0267 13.21826369170396
ONEWEB-0600             
1 54664U 22166Y   26159.48835370 -.00000049  00000+0 -15003-3 0  9999
2 54664  87.9255 245.7097 0001876  95.5181 264.6167 13.21826846170368
ONEWEB-0601             
1 54665U 22166Z   26159.47995613  .00000044  00000+0  74549-4 0  9990
2 54665  87.9253 245.7272 0002178  93.7990 266.3393 13.21825621170557
ONEWEB-0602             
1 54666U 22166AA  26159.52117267  .00000038  00000+0  61230-4 0  9994
2 54666  87.9255 245.7253 0001842  93.1390 266.9954 13.21825926170405
ONEWEB-0603             
1 54667U 22166AB  26159.52707041 -.00000005  00000+0 -42950-4 0  9994
2 54667  87.9265 245.6802 0002030  96.2579 263.8786 13.21826217170334
ONEWEB-0604             
1 54668U 22166AC  26159.51528788  .00000031  00000+0  44737-4 0  9995
2 54668  87.9266 245.6982 0001981 101.3972 258.7385 13.21827829170297
ONEWEB-0605             
1 54669U 22166AD  26159.50856912  .00000168  00000+0  37419-3 0  9997
2 54669  87.9257 245.7137 0002635  94.9754 265.1680 13.21826082170361
ONEWEB-0606             
1 54670U 22166AE  26159.53043304  .00000015  00000+0  37841-5 0  9997
2 54670  87.9257 245.7218 0001946 104.2963 255.8388 13.21826216170421
ONEWEB-0607             
1 54671U 22166AF  26159.49676483  .00000036  00000+0  55023-4 0  9997
2 54671  87.9262 245.6989 0002026  95.0191 265.1175 13.21824552170397
ONEWEB-0608             
1 54672U 22166AG  26159.20072571  .00000109  00000+0  23182-3 0  9996
2 54672  87.9269 245.7543 0002433  90.3605 269.7808 13.21827768170364
